#aV2014  9 29  0  0  0.00000000     288 DD+AD WGS84 FIT  NGA
## 1812  86400.00000000   300.00000000 56929 0.0000000000000
+   31     1  2  4  5  6  7  8  9 10 11 12 13 14 15 16 17 18
+         19 20 21 22 23 24 25 26 27 28 29 30 31 32  0  0  0
+          0  0  0  0  0  0  0  0  0  0  0  0  0  0  0  0  0
+          0  0  0  0  0  0  0  0  0  0  0  0  0  0  0  0  0
+          0  0  0  0  0  0  0  0  0  0  0  0  0  0  0  0  0
++         2  2  2  2  2  2  2  2  2  2  2  2  2  2  2  2  2
++         2  2  2  2  2  2  2  2  2  2  2  2  2  2  0  0  0
++         0  0  0  0  0  0  0  0  0  0  0  0  0  0  0  0  0
++         0  0  0  0  0  0  0  0  0  0  0  0  0  0  0  0  0
++         0  0  0  0  0  0  0  0  0  0  0  0  0  0  0  0  0
%c cc cc ccc ccc cccc cccc cccc cccc ccccc ccccc ccccc ccccc
%c cc cc ccc ccc cccc cccc cccc cccc ccccc ccccc ccccc ccccc
%f  0.0000000  0.000000000  0.00000000000  0.000000000000000
%f  0.0000000  0.000000000  0.00000000000  0.000000000000000
%i    0    0    0    0      0      0      0      0         0
%i    0    0    0    0      0      0      0      0         0
/*      NGA, ST. LOUIS,MO.                                  
/*   EPHEMERIS COMPUTED FROM  1 DAYS OF DATA                
/*   EPOCHA SMOOTHER                                       
/* CCCCCCCCCCCCCCCCCCCCCCCCCCCCCCCCCCCCCCCCCCCCCCCCCCCCCCCCC
*  2014  9 29  2 55  0.00000000
P  1 -13322.518721  12125.743336  19417.385122     21.831731                    
V  1  -1837.380170 -24776.149002  14328.562441      0.005131                    
P  2  13572.263650  14533.477648 -17520.212071    521.168372                    
V  2   -614.104665  22814.641774  17649.087848      0.022094                    
P  4 -11821.671612  16201.415854  16937.448147     -1.102973                    
V  4  -3176.586280 -22227.974829  18940.732449     -0.003539                    
P  5  19666.971722   2839.022380 -17749.469535   -334.885668                    
V  5 -18157.886459  13280.796657 -17864.730367      0.039494                    
P  6   6946.156928  24026.413257  -8975.745466     -3.293649                    
V  6  -2225.865407  11439.592893  28932.642087      0.017061                    
P  7  -7264.140255  22969.135692 -10677.843784    396.745350                    
V  7  -2443.467703 -13800.251037 -28134.299864      0.041332                    
P  8 -11850.219398  17488.239528 -15461.290199     15.695334                    
V  8    368.318272 -20274.447909 -23540.148172      0.001214                    
P  9  -8309.888995  12821.498502 -21721.580698     16.110037                    
V  9 -24223.792335 -13222.327482   1446.674682     -0.034996                    
P 10   4763.624468  15331.840060 -21469.850310   -143.720012                    
V 10 -23147.106114  13037.027548   4672.522548     -0.014648                    
P 11 -15786.787003   4674.195975  20331.553933   -524.801459                    
V 11  -9316.733772 -25679.604418  -1121.869319     -0.029554                    
P 12  24097.241381  -9662.624331   4949.938736    235.250209                    
V 12  -4594.933408   4918.591708  31681.480430      0.026813                    
P 13  -6608.056066  13552.618420 -22032.555428    -46.112093                    
V 13 -22777.410969 -15468.525774  -2870.002574     -0.036182                    
P 14  -9093.722077 -19193.280973  16277.874666    130.386492                    
V 14  17782.399628   9618.169591  21439.964473     -0.036444                    
P 15  23081.419076    393.052723  13340.438952   -205.599591                    
V 15  14073.146590   9862.878596 -24222.262928     -0.022073                    
P 16 -19347.704873  -3217.226846 -18136.540859   -191.703473                    
V 16  19637.043487 -11446.434260 -18632.228755      0.026187                    
P 17   8858.086827  18842.542304  16887.983982   -127.193633                    
V 17 -18581.408015  -9516.323108  20465.928760     -0.026481                    
P 18  11327.349628 -19630.132913  14057.752689    347.937239                    
V 18  16257.917281  -6649.740569 -23478.046678      0.025265                    
P 19 -23440.690365  -6684.716691  10908.090574   -481.008006                    
V 19 -10454.834775  -9429.778954 -27385.130113     -0.018366                    
P 20 -21695.135010  15253.760567     77.557281    239.300260                    
V 20  -2010.423620  -3410.224396  31032.541510      0.043867                    
P 21   2817.879562 -25559.338797  -5020.499410   -386.580825                    
V 21   4316.741766   7146.963116 -30504.846837     -0.020495                    
P 22  -1931.610285 -17042.484305  20464.016535    272.182948                    
V 22  22370.988959 -12672.248651  -8697.636949      0.033374                    
P 23 -18358.071952   5001.402841 -18573.726106    -55.906279                    
V 23 -20079.351591 -12731.602576  15883.664071     -0.028518                    
P 24  14358.987226  -8209.243084  20742.986627    -35.954586                    
V 24   1906.505162  26366.256969   9211.403251     -0.005666                    
P 25  19314.324839 -16972.318154  -6446.548086     20.091998                    
V 25   8101.079322  -2289.272016  30793.591973     -0.011596                    
P 26  23004.292769  13014.689177   3192.076591    -71.011607                    
V 26   2740.216640   4555.904800 -31515.618775     -0.129205                    
P 27 -23535.503591 -12383.316230    410.231339     18.188559                    
V 27    784.560248  -2587.547554 -31784.305497      0.030057                    
P 28  -3984.897486  17253.244880  20365.505407    387.650638                    
V 28 -22041.533318  10697.845825 -13918.915789      0.025885                    
P 29   9874.789514 -11456.885473 -21803.186522    563.403220                    
V 29  23495.607526  14714.722477   2942.545585      0.024122                    
P 30  -1282.020744  26501.575171    139.348528    -67.227477                    
V 30  -2958.157789     23.356171 -31725.925029     -0.040275                    
P 31  -7154.095924 -22938.117609 -10808.867639    331.174355                    
V 31   2355.551962 -14026.012803  28118.086388     -0.004342                    
P 32 -23494.465652   2474.116923  11597.207559   -329.470041                    
V 32  11924.969552  -9482.272990  26789.879089      0.087291                    
EOF
